CCSDS_OMM_VERS = 2.0
CREATION_DATE  = 
ORIGINATOR     = 

OBJECT_NAME    = CZ-2D R/B
OBJECT_ID      = 2025-222C
CENTER_NAME    = EARTH
REF_FRAME      = TEME
TIME_SYSTEM    = UTC
MEAN_ELEMENT_THEORY = SGP/SGP4

EPOCH          = 2025-10-28T11:20:52.264896
MEAN_MOTION    = 14.99329043
ECCENTRICITY   = .00567184
INCLINATION    = 34.9021
RA_OF_ASC_NODE = 210.4453
ARG_OF_PERICENTER = 228.7245
MEAN_ANOMALY   = 130.8566

EPHEMERIS_TYPE = 0
CLASSIFICATION_TYPE = U
NORAD_CAT_ID   = 65853
ELEMENT_SET_NO = 999
REV_AT_EPOCH   = 441
BSTAR          = .22371704E-3
MEAN_MOTION_DOT = .286E-4
MEAN_MOTION_DDOT = 0

CCSDS_OMM_VERS = 2.0
CREATION_DATE  = 
ORIGINATOR     = 

OBJECT_NAME    = STARLINK-35208
OBJECT_ID      = 2025-223A
CENTER_NAME    = EARTH
REF_FRAME      = TEME
TIME_SYSTEM    = UTC
MEAN_ELEMENT_THEORY = SGP/SGP4

EPOCH          = 2025-10-29T07:23:49.346592
MEAN_MOTION    = 15.39709850
ECCENTRICITY   = .0001193
INCLINATION    = 53.1582
RA_OF_ASC_NODE = 187.0474
ARG_OF_PERICENTER = 74.7837
MEAN_ANOMALY   = 285.3300

EPHEMERIS_TYPE = 0
CLASSIFICATION_TYPE = U
NORAD_CAT_ID   = 65854
ELEMENT_SET_NO = 999
REV_AT_EPOCH   = 405
BSTAR          = .19894E-2
MEAN_MOTION_DOT = .80254E-3
MEAN_MOTION_DDOT = 0

CCSDS_OMM_VERS = 2.0
CREATION_DATE  = 
ORIGINATOR     = 

OBJECT_NAME    = STARLINK-35200
OBJECT_ID      = 2025-223B
CENTER_NAME    = EARTH
REF_FRAME      = TEME
TIME_SYSTEM    = UTC
MEAN_ELEMENT_THEORY = SGP/SGP4

EPOCH          = 2025-10-29T12:00:02.998944
MEAN_MOTION    = 15.45612676
ECCENTRICITY   = .0001224
INCLINATION    = 53.1594
RA_OF_ASC_NODE = 185.8127
ARG_OF_PERICENTER = 83.1716
MEAN_ANOMALY   = 66.5301

EPHEMERIS_TYPE = 0
CLASSIFICATION_TYPE = U
NORAD_CAT_ID   = 65855
ELEMENT_SET_NO = 999
REV_AT_EPOCH   = 537
BSTAR          = -.46155E-1
MEAN_MOTION_DOT = -.2012779E-1
MEAN_MOTION_DDOT = 0

CCSDS_OMM_VERS = 2.0
CREATION_DATE  = 
ORIGINATOR     = 

OBJECT_NAME    = STARLINK-35459
OBJECT_ID      = 2025-223C
CENTER_NAME    = EARTH
REF_FRAME      = TEME
TIME_SYSTEM    = UTC
MEAN_ELEMENT_THEORY = SGP/SGP4

EPOCH          = 2025-10-29T12:00:02.998944
MEAN_MOTION    = 15.39532767
ECCENTRICITY   = .0001318
INCLINATION    = 53.1604
RA_OF_ASC_NODE = 185.9879
ARG_OF_PERICENTER = 103.4574
MEAN_ANOMALY   = 317.7069

EPHEMERIS_TYPE = 0
CLASSIFICATION_TYPE = U
NORAD_CAT_ID   = 65856
ELEMENT_SET_NO = 999
REV_AT_EPOCH   = 537
BSTAR          = .2484E-2
MEAN_MOTION_DOT = .99982E-3
MEAN_MOTION_DDOT = 0

CCSDS_OMM_VERS = 2.0
CREATION_DATE  = 
ORIGINATOR     = 

OBJECT_NAME    = STARLINK-35489
OBJECT_ID      = 2025-223D
CENTER_NAME    = EARTH
REF_FRAME      = TEME
TIME_SYSTEM    = UTC
MEAN_ELEMENT_THEORY = SGP/SGP4

EPOCH          = 2025-10-29T11:19:04.219968
MEAN_MOTION    = 15.49336468
ECCENTRICITY   = .000088
INCLINATION    = 53.1599
RA_OF_ASC_NODE = 185.9315
ARG_OF_PERICENTER = 92.3431
MEAN_ANOMALY   = 267.7679

EPHEMERIS_TYPE = 0
CLASSIFICATION_TYPE = U
NORAD_CAT_ID   = 65857
ELEMENT_SET_NO = 999
REV_AT_EPOCH   = 408
BSTAR          = .12127E-2
MEAN_MOTION_DOT = .67651E-3
MEAN_MOTION_DDOT = 0

CCSDS_OMM_VERS = 2.0
CREATION_DATE  = 
ORIGINATOR     = 

OBJECT_NAME    = STARLINK-35199
OBJECT_ID      = 2025-223E
CENTER_NAME    = EARTH
REF_FRAME      = TEME
TIME_SYSTEM    = UTC
MEAN_ELEMENT_THEORY = SGP/SGP4

EPOCH          = 2025-10-29T12:00:02.998944
MEAN_MOTION    = 15.39536851
ECCENTRICITY   = .0001495
INCLINATION    = 53.1605
RA_OF_ASC_NODE = 185.8856
ARG_OF_PERICENTER = 116.6684
MEAN_ANOMALY   = 355.9974

EPHEMERIS_TYPE = 0
CLASSIFICATION_TYPE = U
NORAD_CAT_ID   = 65858
ELEMENT_SET_NO = 999
REV_AT_EPOCH   = 537
BSTAR          = .20548E-2
MEAN_MOTION_DOT = .82459E-3
MEAN_MOTION_DDOT = 0

CCSDS_OMM_VERS = 2.0
CREATION_DATE  = 
ORIGINATOR     = 

OBJECT_NAME    = STARLINK-35408
OBJECT_ID      = 2025-223F
CENTER_NAME    = EARTH
REF_FRAME      = TEME
TIME_SYSTEM    = UTC
MEAN_ELEMENT_THEORY = SGP/SGP4

EPOCH          = 2025-10-29T11:57:34.695072
MEAN_MOTION    = 15.39668328
ECCENTRICITY   = .0001022
INCLINATION    = 53.1596
RA_OF_ASC_NODE = 186.0995
ARG_OF_PERICENTER = 56.6966
MEAN_ANOMALY   = 303.4137

EPHEMERIS_TYPE = 0
CLASSIFICATION_TYPE = U
NORAD_CAT_ID   = 65859
ELEMENT_SET_NO = 999
REV_AT_EPOCH   = 408
BSTAR          = .20293E-2
MEAN_MOTION_DOT = .81775E-3
MEAN_MOTION_DDOT = 0

CCSDS_OMM_VERS = 2.0
CREATION_DATE  = 
ORIGINATOR     = 

OBJECT_NAME    = STARLINK-35303
OBJECT_ID      = 2025-223G
CENTER_NAME    = EARTH
REF_FRAME      = TEME
TIME_SYSTEM    = UTC
MEAN_ELEMENT_THEORY = SGP/SGP4

EPOCH          = 2025-10-29T12:00:02.998944
MEAN_MOTION    = 15.39563055
ECCENTRICITY   = .0001205
INCLINATION    = 53.1605
RA_OF_ASC_NODE = 185.9375
ARG_OF_PERICENTER = 122.8991
MEAN_ANOMALY   = 323.9623

EPHEMERIS_TYPE = 0
CLASSIFICATION_TYPE = U
NORAD_CAT_ID   = 65860
ELEMENT_SET_NO = 999
REV_AT_EPOCH   = 537
BSTAR          = .18677E-2
MEAN_MOTION_DOT = .74904E-3
MEAN_MOTION_DDOT = 0

CCSDS_OMM_VERS = 2.0
CREATION_DATE  = 
ORIGINATOR     = 

OBJECT_NAME    = STARLINK-35258
OBJECT_ID      = 2025-223H
CENTER_NAME    = EARTH
REF_FRAME      = TEME
TIME_SYSTEM    = UTC
MEAN_ELEMENT_THEORY = SGP/SGP4

EPOCH          = 2025-10-29T11:18:04.672224
MEAN_MOTION    = 15.49348759
ECCENTRICITY   = .0000517
INCLINATION    = 53.1594
RA_OF_ASC_NODE = 185.9264
ARG_OF_PERICENTER = 119.5276
MEAN_ANOMALY   = 240.5784

EPHEMERIS_TYPE = 0
CLASSIFICATION_TYPE = U
NORAD_CAT_ID   = 65861
ELEMENT_SET_NO = 999
REV_AT_EPOCH   = 408
BSTAR          = .13962E-2
MEAN_MOTION_DOT = .78093E-3
MEAN_MOTION_DDOT = 0

CCSDS_OMM_VERS = 2.0
CREATION_DATE  = 
ORIGINATOR     = 

OBJECT_NAME    = STARLINK-35386
OBJECT_ID      = 2025-223J
CENTER_NAME    = EARTH
REF_FRAME      = TEME
TIME_SYSTEM    = UTC
MEAN_ELEMENT_THEORY = SGP/SGP4

EPOCH          = 2025-10-29T12:00:02.998944
MEAN_MOTION    = 15.39851630
ECCENTRICITY   = .0000391
INCLINATION    = 53.1606
RA_OF_ASC_NODE = 185.8335
ARG_OF_PERICENTER = 64.8060
MEAN_ANOMALY   = 73.4553

EPHEMERIS_TYPE = 0
CLASSIFICATION_TYPE = U
NORAD_CAT_ID   = 65862
ELEMENT_SET_NO = 999
REV_AT_EPOCH   = 537
BSTAR          = -.12072E-1
MEAN_MOTION_DOT = -.458742E-2
MEAN_MOTION_DDOT = 0

CCSDS_OMM_VERS = 2.0
CREATION_DATE  = 
ORIGINATOR     = 

OBJECT_NAME    = STARLINK-35469
OBJECT_ID      = 2025-223K
CENTER_NAME    = EARTH
REF_FRAME      = TEME
TIME_SYSTEM    = UTC
MEAN_ELEMENT_THEORY = SGP/SGP4

EPOCH          = 2025-10-29T12:00:02.998944
MEAN_MOTION    = 15.39525663
ECCENTRICITY   = .0000962
INCLINATION    = 53.1594
RA_OF_ASC_NODE = 186.0378
ARG_OF_PERICENTER = 83.0727
MEAN_ANOMALY   = 312.3973

EPHEMERIS_TYPE = 0
CLASSIFICATION_TYPE = U
NORAD_CAT_ID   = 65863
ELEMENT_SET_NO = 999
REV_AT_EPOCH   = 537
BSTAR          = .29677E-2
MEAN_MOTION_DOT = .119817E-2
MEAN_MOTION_DDOT = 0

CCSDS_OMM_VERS = 2.0
CREATION_DATE  = 
ORIGINATOR     = 

OBJECT_NAME    = STARLINK-35471
OBJECT_ID      = 2025-223L
CENTER_NAME    = EARTH
REF_FRAME      = TEME
TIME_SYSTEM    = UTC
MEAN_ELEMENT_THEORY = SGP/SGP4

EPOCH          = 2025-10-29T12:49:18.681600
MEAN_MOTION    = 15.47096128
ECCENTRICITY   = .0001328
INCLINATION    = 53.1595
RA_OF_ASC_NODE = 185.6083
ARG_OF_PERICENTER = 25.0061
MEAN_ANOMALY   = 335.1012

EPHEMERIS_TYPE = 0
CLASSIFICATION_TYPE = U
NORAD_CAT_ID   = 65864
ELEMENT_SET_NO = 999
REV_AT_EPOCH   = 409
BSTAR          = -.7811E-2
MEAN_MOTION_DOT = -.38335E-2
MEAN_MOTION_DDOT = 0

CCSDS_OMM_VERS = 2.0
CREATION_DATE  = 
ORIGINATOR     = 

OBJECT_NAME    = STARLINK-35475
OBJECT_ID      = 2025-223M
CENTER_NAME    = EARTH
REF_FRAME      = TEME
TIME_SYSTEM    = UTC
MEAN_ELEMENT_THEORY = SGP/SGP4

EPOCH          = 2025-10-29T11:15:06.778080
MEAN_MOTION    = 15.49353059
ECCENTRICITY   = .0000827
INCLINATION    = 53.1602
RA_OF_ASC_NODE = 185.9115
ARG_OF_PERICENTER = 70.3843
MEAN_ANOMALY   = 289.7256

EPHEMERIS_TYPE = 0
CLASSIFICATION_TYPE = U
NORAD_CAT_ID   = 65865
ELEMENT_SET_NO = 999
REV_AT_EPOCH   = 408
BSTAR          = .17964E-2
MEAN_MOTION_DOT = .100914E-2
MEAN_MOTION_DDOT = 0

CCSDS_OMM_VERS = 2.0
CREATION_DATE  = 
ORIGINATOR     = 

OBJECT_NAME    = STARLINK-35312
OBJECT_ID      = 2025-223N
CENTER_NAME    = EARTH
REF_FRAME      = TEME
TIME_SYSTEM    = UTC
MEAN_ELEMENT_THEORY = SGP/SGP4

EPOCH          = 2025-10-29T11:14:37.441824
MEAN_MOTION    = 15.49344104
ECCENTRICITY   = .000188
INCLINATION    = 53.1593
RA_OF_ASC_NODE = 185.9092
ARG_OF_PERICENTER = 105.7020
MEAN_ANOMALY   = 254.4197

EPHEMERIS_TYPE = 0
CLASSIFICATION_TYPE = U
NORAD_CAT_ID   = 65866
ELEMENT_SET_NO = 999
REV_AT_EPOCH   = 408
BSTAR          = .16248E-2
MEAN_MOTION_DOT = .91092E-3
MEAN_MOTION_DDOT = 0

CCSDS_OMM_VERS = 2.0
CREATION_DATE  = 
ORIGINATOR     = 

OBJECT_NAME    = STARLINK-35456
OBJECT_ID      = 2025-223P
CENTER_NAME    = EARTH
REF_FRAME      = TEME
TIME_SYSTEM    = UTC
MEAN_ELEMENT_THEORY = SGP/SGP4

EPOCH          = 2025-10-29T11:14:07.613088
MEAN_MOTION    = 15.49341803
ECCENTRICITY   = .0001002
INCLINATION    = 53.1597
RA_OF_ASC_NODE = 185.9067
ARG_OF_PERICENTER = 96.1077
MEAN_ANOMALY   = 264.0046

EPHEMERIS_TYPE = 0
CLASSIFICATION_TYPE = U
NORAD_CAT_ID   = 65867
ELEMENT_SET_NO = 999
REV_AT_EPOCH   = 408
BSTAR          = .15357E-2
MEAN_MOTION_DOT = .86005E-3
MEAN_MOTION_DDOT = 0

